OBJECT_NAME,OBJECT_ID,EPOCH,MEAN_MOTION,ECCENTRICITY,INCLINATION,RA_OF_ASC_NODE,ARG_OF_PERICENTER,MEAN_ANOMALY,EPHEMERIS_TYPE,CLASSIFICATION_TYPE,NORAD_CAT_ID,ELEMENT_SET_NO,REV_AT_EPOCH,BSTAR,MEAN_MOTION_DOT,MEAN_MOTION_DDOT
STARLINK-11468 [DTC],2024-231D,2026-01-26T07:48:06.440256,15.69776087,.0001224,53.1563,310.4022,126.1219,233.9912,0,U,62221,999,6675,.14514E-2,.17959E-2,0
STARLINK-11488 [DTC],2024-231E,2026-01-26T12:01:58.518336,15.69753018,.00013302,53.1569,309.3625,70.4269,289.6893,0,U,62222,999,6678,.1304654E-2,.160856E-2,0
STARLINK-11483 [DTC],2024-231F,2026-01-26T09:40:51.089376,15.69710191,.00012617,53.1572,309.4501,40.4425,319.6687,0,U,62223,999,6677,.10238301E-2,.125338E-2,0
STARLINK-11492 [DTC],2024-231G,2026-01-26T15:19:28.052832,15.69773842,.00010447,53.1568,308.8115,79.7227,280.3908,0,U,62224,999,6680,.17217758E-2,.214037E-2,0
STARLINK-11471 [DTC],2024-231H,2026-01-26T14:22:57.524160,15.69762434,.00013284,53.1561,308.5517,113.5089,246.6069,0,U,62225,999,6680,.2388321E-2,.300117E-2,0
STARLINK-11475 [DTC],2024-231J,2026-01-26T02:16:32.985408,15.69894097,.00017418,53.1562,311.0824,141.1361,218.9783,0,U,62226,999,6672,.17893909E-2,.223847E-2,0
STARLINK-11469 [DTC],2024-231K,2026-01-26T05:34:02.556192,15.69745727,.0000903,53.1577,310.5186,58.6776,301.4330,0,U,62227,999,6674,.18482E-2,.229975E-2,0
STARLINK-11476 [DTC],2024-231L,2026-01-26T01:55:21.141120,15.69859331,.0001319,53.1574,310.9838,176.7897,183.3129,0,U,62228,999,6673,.23364555E-2,.294569E-2,0
STARLINK-11485 [DTC],2024-231M,2026-01-26T14:37:03.191808,15.69757636,.0000877,53.1559,308.6017,80.6482,279.4635,0,U,62229,999,6680,.86574801E-3,.105852E-2,0
STARLINK-11481 [DTC],2024-231N,2026-01-26T06:23:29.022432,15.69788706,.0001251,53.1579,310.7435,118.8128,241.3015,0,U,62230,999,6674,.17793E-2,.221547E-2,0
STARLINK-32650,2024-231P,2026-01-26T08:26:05.634240,15.30201431,.00015314,53.1595,56.4670,107.9994,252.1173,0,U,62231,999,6528,.19596893E-2,.58139E-3,0
STARLINK-32636,2024-231Q,2026-01-26T12:10:30.693216,15.30224294,.00018036,53.1584,55.3213,55.2095,304.9075,0,U,62232,999,6531,.11828574E-2,.34865E-3,0
STARLINK-32643,2024-231R,2026-01-26T08:00:58.867488,15.30191394,.0001268,53.1604,43.5804,105.9430,254.1711,0,U,62233,999,6545,.94933E-3,.27855E-3,0
STARLINK-32652,2024-231S,2026-01-26T09:35:50.172000,15.30204730,.00013399,53.1616,56.0576,78.6802,281.4349,0,U,62234,999,6528,.10166295E-2,.29876E-3,0
STARLINK-32631,2024-231T,2026-01-26T07:39:42.163200,15.30158808,.0001355,53.1598,43.4858,103.5720,256.5432,0,U,62235,999,6545,.16716E-2,.49414E-3,0
STARLINK-32641,2024-231U,2026-01-26T08:05:32.363232,15.30195061,.0001112,53.1598,43.5943,70.3757,289.7364,0,U,62236,999,6545,.11427E-2,.33633E-3,0
QIANFAN-37,2024-232B,2026-01-26T13:54:03.235104,13.50983179,.0001709,88.9996,36.7967,70.7948,289.3388,0,U,62238,999,10522,.49637108E-4,.44E-6,0
QIANFAN-38,2024-232C,2026-01-26T14:29:40.638912,13.50981134,.00163784,89.0003,36.7130,68.6514,291.6383,0,U,62239,999,10528,.5332465E-4,.47E-6,0
QIANFAN-39,2024-232D,2026-01-26T13:29:44.862720,14.25416560,.00140459,89.0000,32.1760,295.7642,64.2101,0,U,62240,999,10777,.94643118E-4,.238E-5,0
QIANFAN-40,2024-232E,2026-01-26T15:17:04.920864,13.50981348,.00154904,89.0031,36.3066,75.7647,284.5223,0,U,62241,999,10565,.63552691E-4,.53E-6,0
QIANFAN-41,2024-232F,2026-01-26T15:28:53.816448,13.50983452,.00157461,89.0001,36.6596,65.1580,295.1206,0,U,62242,999,10531,.59083115E-4,.5E-6,0
QIANFAN-42,2024-232G,2026-01-26T14:08:01.375584,14.24511179,.00130293,88.9998,32.2271,302.9692,57.0247,0,U,62243,999,10775,.89823789E-4,.223E-5,0
QIANFAN-43,2024-232H,2026-01-26T15:22:57.785376,13.50982486,.00173259,89.0005,36.7274,69.5828,290.7182,0,U,62244,999,7392,.66100571E-4,.55E-6,0
QIANFAN-44,2024-232J,2026-01-26T15:05:09.064896,13.50984745,.00155113,89.0004,36.5386,67.2756,293.0032,0,U,62245,999,10539,.38140918E-4,.37E-6,0
QIANFAN-45,2024-232K,2026-01-26T14:17:52.780992,13.50993630,.00161817,89.0005,36.6899,66.9828,293.3028,0,U,62246,999,10531,.57359725E-4,.49E-6,0
QIANFAN-46,2024-232L,2026-01-26T14:53:20.844960,13.50982837,.00162834,89.0003,36.7548,71.7657,288.5265,0,U,62247,999,10527,.44908043E-4,.41E-6,0
QIANFAN-47,2024-232M,2026-01-26T13:12:40.395456,13.50982844,.00167151,88.9999,36.6930,71.0762,289.2199,0,U,62248,999,10529,.42065898E-4,.39E-6,0
QIANFAN-48,2024-232N,2026-01-26T14:05:54.644064,13.50984065,.00189874,89.0003,36.6929,73.0551,287.2680,0,U,62249,999,10530,.34237836E-4,.34E-6,0
QIANFAN-49,2024-232P,2026-01-26T15:34:47.446464,13.50984250,.00160059,89.0002,36.6988,68.4390,291.8465,0,U,62250,999,7390,.57948318E-4,.5E-6,0
QIANFAN-50,2024-232Q,2026-01-26T14:23:47.708736,13.50981077,.00176785,89.0007,36.7144,69.5326,290.7721,0,U,62251,999,7392,.46545272E-4,.42E-6,0
