STARLINK-11468 [DTC]    
1 62221U 24231D   26026.32507454  .00179590  00000+0  14514-2 0  9998
2 62221  53.1563 310.4022 0001224 126.1219 233.9912 15.69776087 66750
STARLINK-11488 [DTC]    
1 62222U 24231E   26026.50137174  .00160856  00000+0  13047-2 0  9992
2 62222  53.1569 309.3625 0001330  70.4269 289.6893 15.69753018 66785
STARLINK-11483 [DTC]    
1 62223U 24231F   26026.40336909  .00125338  00000+0  10238-2 0  9994
2 62223  53.1572 309.4501 0001261  40.4425 319.6687 15.69710191 66777
STARLINK-11492 [DTC]    
1 62224U 24231G   26026.63851913  .00214037  00000+0  17218-2 0  9997
2 62224  53.1568 308.8115 0001044  79.7227 280.3908 15.69773842 66807
STARLINK-11471 [DTC]    
1 62225U 24231H   26026.59927690  .00300117  00000+0  23883-2 0  9999
2 62225  53.1561 308.5517 0001328 113.5089 246.6069 15.69762434 66800
STARLINK-11475 [DTC]    
1 62226U 24231J   26026.09482622  .00223847  00000+0  17894-2 0  9995
2 62226  53.1562 311.0824 0001741 141.1361 218.9783 15.69894097 66728
STARLINK-11469 [DTC]    
1 62227U 24231K   26026.23197403  .00229975  00000+0  18482-2 0  9994
2 62227  53.1577 310.5186 0000903  58.6776 301.4330 15.69745727 66744
STARLINK-11476 [DTC]    
1 62228U 24231L   26026.08010580  .00294569  00000+0  23365-2 0  9995
2 62228  53.1574 310.9838 0001319 176.7897 183.3129 15.69859331 66737
STARLINK-11485 [DTC]    
1 62229U 24231M   26026.60906472  .00105852  00000+0  86575-3 0  9997
2 62229  53.1559 308.6017 0000877  80.6482 279.4635 15.69757636 66807
STARLINK-11481 [DTC]    
1 62230U 24231N   26026.26630813  .00221547  00000+0  17793-2 0  9999
2 62230  53.1579 310.7435 0001251 118.8128 241.3015 15.69788706 66742
STARLINK-32650          
1 62231U 24231P   26026.35145410  .00058139  00000+0  19597-2 0  9993
2 62231  53.1595  56.4670 0001531 107.9994 252.1173 15.30201431 65283
STARLINK-32636          
1 62232U 24231Q   26026.50729969  .00034865  00000+0  11829-2 0  9998
2 62232  53.1584  55.3213 0001803  55.2095 304.9075 15.30224294 65315
STARLINK-32643          
1 62233U 24231R   26026.33401467  .00027855  00000+0  94933-3 0  9999
2 62233  53.1604  43.5804 0001268 105.9430 254.1711 15.30191394 65457
STARLINK-32652          
1 62234U 24231S   26026.39988625  .00029876  00000+0  10166-2 0  9992
2 62234  53.1616  56.0576 0001339  78.6802 281.4349 15.30204730 65284
STARLINK-32631          
1 62235U 24231T   26026.31923800  .00049414  00000+0  16716-2 0  9996
2 62235  53.1598  43.4858 0001355 103.5720 256.5432 15.30158808 65451
STARLINK-32641          
1 62236U 24231U   26026.33718013  .00033633  00000+0  11427-2 0  9997
2 62236  53.1598  43.5943 0001112  70.3757 289.7364 15.30195061 65454
QIANFAN-37              
1 62238U 24232B   26026.57920411  .00000044  00000+0  49637-4 0  9999
2 62238  88.9996  36.7967 0001709  70.7948 289.3388 13.50983179105229
QIANFAN-38              
1 62239U 24232C   26026.60394258  .00000047  00000+0  53325-4 0  9990
2 62239  89.0003  36.7130 0016378  68.6514 291.6383 13.50981134105282
QIANFAN-39              
1 62240U 24232D   26026.56232480  .00000238  00000+0  94643-4 0  9995
2 62240  89.0000  32.1760 0014045 295.7642  64.2101 14.25416560107771
QIANFAN-40              
1 62241U 24232E   26026.63686251  .00000053  00000+0  63553-4 0  9994
2 62241  89.0031  36.3066 0015490  75.7647 284.5223 13.50981348105652
QIANFAN-41              
1 62242U 24232F   26026.64506732  .00000050  00000+0  59083-4 0  9991
2 62242  89.0001  36.6596 0015746  65.1580 295.1206 13.50983452105314
QIANFAN-42              
1 62243U 24232G   26026.58890481  .00000223  00000+0  89824-4 0  9990
2 62243  88.9998  32.2271 0013029 302.9692  57.0247 14.24511179107753
QIANFAN-43              
1 62244U 24232H   26026.64094659  .00000055  00000+0  66101-4 0  9997
2 62244  89.0005  36.7274 0017325  69.5828 290.7182 13.50982486 73923
QIANFAN-44              
1 62245U 24232J   26026.62857714  .00000037  00000+0  38141-4 0  9998
2 62245  89.0004  36.5386 0015511  67.2756 293.0032 13.50984745105392
QIANFAN-45              
1 62246U 24232K   26026.59574978  .00000049  00000+0  57360-4 0  9990
2 62246  89.0005  36.6899 0016181  66.9828 293.3028 13.50993630105317
QIANFAN-46              
1 62247U 24232L   26026.62038015  .00000041  00000+0  44908-4 0  9998
2 62247  89.0003  36.7548 0016283  71.7657 288.5265 13.50982837105276
QIANFAN-47              
1 62248U 24232M   26026.55046754  .00000039  00000+0  42066-4 0  9990
2 62248  88.9999  36.6930 0016715  71.0762 289.2199 13.50982844105297
QIANFAN-48              
1 62249U 24232N   26026.58743801  .00000034  00000+0  34238-4 0  9998
2 62249  89.0003  36.6929 0018987  73.0551 287.2680 13.50984065105307
QIANFAN-49              
1 62250U 24232P   26026.64916026  .00000050  00000+0  57948-4 0  9999
2 62250  89.0002  36.6988 0016005  68.4390 291.8465 13.50984250 73909
QIANFAN-50              
1 62251U 24232Q   26026.59985774  .00000042  00000+0  46545-4 0  9992
2 62251  89.0007  36.7144 0017678  69.5326 290.7721 13.50981077 73927
